STARLINK-4719           
1 53774C 22111B   26089.38520833 -.00023336  00000+0 -14629-2 0   892
2 53774  53.2148 191.1002 0001088  97.6915 194.6651 15.08859899    14
STARLINK-4722           
1 53775C 22111C   26089.37756944 -.00020649  00000+0 -12950-2 0   895
2 53775  53.2160 181.4840 0001127  97.0609 348.5386 15.08845404    11
STARLINK-4664           
1 53777C 22111E   26089.38173611 -.00056021  00000+0 -35115-2 0   893
2 53777  53.2165 181.3856 0001147  89.2381  59.0506 15.08882232    14
STARLINK-4709           
1 53778C 22111F   26089.33381944 -.00002115  00000+0 -13265-3 0   897
2 53778  53.2155 186.1733 0001249  84.1094  16.5583 15.08834835    18
STARLINK-4706           
1 53779C 22111G   26089.35812500 -.00015491  00000+0 -97136-3 0   897
2 53779  53.2168 181.4527 0001241  79.9082 320.0911 15.08847018    18
STARLINK-4678           
1 53780C 22111H   26089.36993056 -.00022621  00000+0 -14182-2 0   898
2 53780  53.2161 181.4780 0001262 106.7381 317.3820 15.08856746    14
STARLINK-4462           
1 53781C 22111J   26089.35465278 -.00014885  00000+0 -93338-3 0   892
2 53781  53.2166 181.3506 0001295  96.7645 344.4560 15.08847369    15
STARLINK-4679           
1 53782C 22111K   26089.35118056  .00470030  00000+0  18577-1 0   898
2 53782  53.2185 180.4315 0001201  76.6718 110.6881 15.24728575    14
STARLINK-4536           
1 53783C 22111L   26089.31784722  .00001288  00000+0  80758-4 0   892
2 53783  53.2160 181.4357 0001324 100.4469 180.7743 15.08838895    14
STARLINK-4687           
1 53784C 22111M   26089.34423611 -.00011060  00000+0 -69327-3 0   892
2 53784  53.2168 181.4361 0001324 101.6482 262.9219 15.08858657    15
STARLINK-4743           
1 53787C 22111Q   26089.32618056 -.00094703  00000+0 -59416-2 0   894
2 53787  53.2152 181.3197 0001330  90.9774 275.7233 15.08867386    15
STARLINK-4666           
1 53789C 22111S   26089.40326389 -.00020776  00000+0 -13027-2 0   897
2 53789  53.2146 180.8583 0001505  84.6772  40.8851 15.08850980    14
STARLINK-4734           
1 53790C 22111T   26089.42965278 -.00015334  00000+0 -96147-3 0   896
2 53790  53.2160 180.8952 0001495  93.6314  95.2444 15.08848755    11
STARLINK-4739           
1 53792C 22111V   26089.39076389 -.00021093  00000+0 -13227-2 0   896
2 53792  53.2147 181.5419 0001332  77.7036  14.3273 15.08849134    12
STARLINK-4728           
1 53793C 22111W   26089.41576389 -.00018407  00000+0 -11542-2 0   898
2 53793  53.2149 180.8771 0001307  95.4991  57.9522 15.08850184    14
STARLINK-4730           
1 53794C 22111X   26089.40673611 -.00035491  00000+0 -22251-2 0   895
2 53794  53.2152 180.9674 0001381  83.6045 355.5694 15.08863586    10
STARLINK-4742           
1 53795C 22111Y   26089.32270833 -.00003630  00000+0 -22757-3 0   898
2 53795  53.2146 181.1796 0001166  98.0427 329.7721 15.08848399    16
STARLINK-4723           
1 53797C 22111AA  26089.36854167 -.00031685  00000+0 -19867-2 0   890
2 53797  53.2157 180.8548 0001268  94.1033 282.8794 15.08857428    16
STARLINK-4712           
1 53798C 22111AB  26089.42409722 -.00039496  00000+0 -24766-2 0   893
2 53798  53.2155 180.6446 0001272  96.5248 202.3730 15.08860310    10
STARLINK-4710           
1 53799C 22111AC  26089.31506944 -.00009561  00000+0 -59985-3 0   898
2 53799  53.2155 171.6017 0001104 109.0094  86.8592 15.08824717    10
STARLINK-4720           
1 53800C 22111AD  26089.44145833  .00020064  00000+0  30038-3 0   898
2 53800  53.2092 140.1764 0000616 273.6395 133.1706 15.54349591    18
STARLINK-4715           
1 53801C 22111AE  26089.34006944  .00007158  00000+0  44811-3 0   890
2 53801  53.2161 171.1666 0001330  93.0176  44.1361 15.08897793    15
STARLINK-4726           
1 53802C 22111AF  26089.42618056 -.00017405  00000+0 -10917-2 0   890
2 53802  53.2162 170.8975 0001233  94.1756  90.8580 15.08837773    17
STARLINK-4727           
1 53803C 22111AG  26089.37548611 -.00020203  00000+0 -12664-2 0   895
2 53803  53.2159 156.3052 0001439  84.1816 107.6273 15.08862218    11
STARLINK-4729           
1 53804C 22111AH  26089.30395833 -.00019370  00000+0 -12145-2 0   892
2 53804  53.2160 166.3623 0001248  98.2302 184.9204 15.08852615    15
STARLINK-4763           
1 53805C 22111AJ  26089.42895833 -.00077361  00000+0 -48507-2 0   896
2 53805  53.2155 156.1481 0001369  80.6165 356.6496 15.08880599    18
STARLINK-4768           
1 53806C 22111AK  26089.34979167 -.00023925  00000+0 -15004-2 0   894
2 53806  53.2155 156.2189 0001333  90.3689  62.0251 15.08848584    10
STARLINK-4738           
1 53819C 22114B   26089.39979167 -.00009865  00000+0 -61838-3 0   890
2 53819  53.2161 211.0209 0001213  93.0266 128.6046 15.08857311    11
STARLINK-4758           
1 53820C 22114C   26089.40604167 -.00002660  00000+0 -16677-3 0   896
2 53820  53.2148 211.3404 0001218  91.7781 343.5710 15.08849056    13
STARLINK-4748           
1 53823C 22114F   26089.32965278 -.00017739  00000+0 -11124-2 0   897
2 53823  53.2160 166.4491 0001356  91.6064  76.2343 15.08845003    12
STARLINK-4757           
1 53824C 22114G   26089.41506944 -.00005943  00000+0 -37269-3 0   892
2 53824  53.2149 210.4887 0001257  97.8605  87.0891 15.08840650    19
STARLINK-4751           
1 53825C 22114H   26089.34423611  .00019586  00000+0  12283-2 0   898
2 53825  53.2149 211.5402 0001204  94.0759  45.4270 15.08824975    17
STARLINK-4756           
1 53826C 22114J   26089.30881944  .00037834  00000+0  23720-2 0   896
2 53826  53.2159 211.5029 0001237  94.1818 312.9696 15.08826393    17
STARLINK-4764           
1 53827C 22114K   26089.39701389 -.00001469  00000+0 -92081-4 0   895
2 53827  53.2153 211.2244 0001243  83.4414  22.9555 15.08847637    14
STARLINK-4760           
1 53828C 22114L   26089.33937500  .00023917  00000+0  14996-2 0   893
2 53828  53.2161 211.3262 0001233  99.5724 133.6570 15.08830479    19
STARLINK-4759           
1 53829C 22114M   26089.38451389  .00005305  00000+0  33269-3 0   891
2 53829  53.2156 211.2411 0001263  96.9315 321.5491 15.08830765    17
STARLINK-4761           
1 53830C 22114N   26089.32965278  .00027925  00000+0  17505-2 0   890
2 53830  53.2161 211.2911 0001330 100.1389 120.3316 15.08837350    12
STARLINK-4649           
1 53831C 22114P   26089.32409722  .00028933  00000+0  18141-2 0   895
2 53831  53.2157 211.4727 0001251 100.3422   9.8133 15.08828681    12
STARLINK-4747           
1 53832C 22114Q   26089.38034722  .00008978  00000+0  56284-3 0   894
2 53832  53.2162 210.9849 0001315  95.6692  80.3569 15.08844361    14
STARLINK-4771           
1 53833C 22114R   26089.40187500  .00001248  00000+0  78201-4 0   898
2 53833  53.2163 211.0170 0001240 101.7803 125.9679 15.08851445    14
STARLINK-4737           
1 53834C 22114S   26089.33034722  .00030958  00000+0  19413-2 0   896
2 53834  53.2156 211.1292 0001206  97.5664 206.7622 15.08823357    19
STARLINK-4783           
1 53835C 22114T   26089.39631944  .00004196  00000+0  26307-3 0   898
2 53835  53.2166 210.9535 0001363 100.0228 142.7840 15.08844731    18
STARLINK-4778           
1 53836C 22114U   26089.31923611  .00027804  00000+0  17434-2 0   897
2 53836  53.2161 201.7109 0001202  98.0820 240.5352 15.08828214    18
STARLINK-4776           
1 53837C 22114V   26089.40534722 -.00001116  00000+0 -69963-4 0   895
2 53837  53.2159 210.8323 0001308  96.0870 235.8144 15.08843837    19
STARLINK-4773           
1 53838C 22114W   26089.32340278  .00016604  00000+0  10410-2 0   895
2 53838  53.2160 201.6564 0001159  89.1824 292.0889 15.08834901    16
STARLINK-4784           
1 53839C 22114X   26089.37340278 -.00003791  00000+0 -23763-3 0   892
2 53839  53.2165 201.5141 0001349  92.3081 160.6405 15.08851334    17
STARLINK-4766           
1 53840C 22114Y   26089.32479167  .00023025  00000+0  14435-2 0   894
2 53840  53.2145 201.5462 0001239  88.5199 355.1750 15.08836044    13
STARLINK-4750           
1 53841C 22114Z   26089.34145833  .00013442  00000+0  84275-3 0   899
2 53841  53.2159 201.5353 0001241 100.8633  38.5608 15.08837813    11
STARLINK-4754           
1 53842C 22114AA  26089.39076389 -.00008816  00000+0 -55255-3 0   891
2 53842  53.2148 201.1617 0001347  81.4892  46.0045 15.08862829    11
STARLINK-4769           
1 53843C 22114AB  26089.42479167 -.00021853  00000+0 -13700-2 0   891
2 53843  53.2153 201.1240 0001286  91.3487 160.9962 15.08858959    15
STARLINK-4745           
1 53844C 22114AC  26089.42618056 -.00015690  00000+0 -98393-3 0   898
2 53844  53.2151 200.9247 0001305  92.8076 267.2101 15.08844645    13
STARLINK-4753           
1 53845C 22114AD  26089.37409722  .00001802  00000+0  11293-3 0   893
2 53845  53.2151 201.2924 0001176  86.9274 289.9446 15.08849741    15
STARLINK-4746           
1 53846C 22114AE  26089.37062500 -.00000665  00000+0 -41716-4 0   895
2 53846  53.2151 201.0953 0001283  85.2736  12.8686 15.08847525    17
STARLINK-4777           
1 53847C 22114AF  26089.41437500 -.00095038  00000+0 -59607-2 0   891
2 53847  53.2146 201.0163 0000988  39.8229 236.0892 15.08879255    12
STARLINK-4780           
1 53848C 22114AG  26089.38034722 -.00002236  00000+0 -14021-3 0   897
2 53848  53.2159 200.9725 0001211  97.2104  93.8056 15.08847369    11
STARLINK-4770           
1 53849C 22114AH  26089.35118056  .00007945  00000+0  49810-3 0   892
2 53849  53.2146 201.2214 0001136  97.2321 235.1887 15.08842441    11
STARLINK-4767           
1 53850C 22114AJ  26089.35256944  .00009200  00000+0  57644-3 0   893
2 53850  53.2165 200.9784 0001272  75.8586  24.1924 15.08863731    11
STARLINK-4755           
1 53851C 22114AK  26089.32270833  .00017825  00000+0  11179-2 0   898
2 53851  53.2151 201.2706 0001337 103.4430 114.3031 15.08826155    13
STARLINK-4797           
1 53852C 22114AL  26089.35951389  .00001222  00000+0  76702-4 0   893
2 53852  53.2151 196.2620 0001384  93.5977 251.5428 15.08794022    10
